start=new Date('2023-02-06T00:00:00.000Z').valueOf();
sats=[{"SITE":"AFETR","LAUNCH_DATE":"2020-06-04","APOAPSIS":"548.108","EPOCH":"2023-02-05T21:03:41.579712","MEAN_MOTION_DOT":"0.00001447","TLE_LINE1":"1 45661U 20035E   23036.87756458  .00001447  00000-0  11603-3 0  9996","INCLINATION":"53.0514","MEAN_MOTION":"15.06401266","PERIAPSIS":"546.311","COUNTRY_CODE":"US","GP_ID":"224553955","OBJECT_NAME":"STARLINK-1444","MEAN_ELEMENT_THEORY":"SGP4","RCS_SIZE":"LARGE","NORAD_CAT_ID":"45661","PERIOD":"95.592","CLASSIFICATION_TYPE":"U","TLE_LINE2":"2 45661  53.0514  89.5676 0001297  86.1772 273.9365 15.06401266148743","CENTER_NAME":"EARTH","FILE":"3774172","ARG_OF_PERICENTER":"86.1772","SEMIMAJOR_AXIS":"6925.345","OBJECT_TYPE":"PAYLOAD","RA_OF_ASC_NODE":"89.5676","REF_FRAME":"TEME","MEAN_ANOMALY":"273.9365","MEAN_MOTION_DDOT":"0.0000000000000","BSTAR":"0.00011603000000","DECAY_DATE":null,"OBJECT_ID":"2020-035E","EPHEMERIS_TYPE":"0","REV_AT_EPOCH":"14874","ELEMENT_SET_NO":"999","ECCENTRICITY":"0.00012970","TIME_SYSTEM":"UTC"},{"SEMIMAJOR_AXIS":"6925.351","OBJECT_TYPE":"PAYLOAD","RA_OF_ASC_NODE":"90.9956","REF_FRAME":"TEME","MEAN_ANOMALY":"266.5089","MEAN_MOTION_DDOT":"0.0000000000000","BSTAR":"0.00004906600000","DECAY_DATE":null,"OBJECT_ID":"2020-035F","EPHEMERIS_TYPE":"0","REV_AT_EPOCH":"14869","ELEMENT_SET_NO":"999","ECCENTRICITY":"0.00013490","TIME_SYSTEM":"UTC","TLE_LINE2":"2 45662  53.0528  90.9956 0001349  93.6054 266.5089 15.06399057148699","FILE":"3773728","CENTER_NAME":"EARTH","ARG_OF_PERICENTER":"93.6054","MEAN_ELEMENT_THEORY":"SGP4","RCS_SIZE":"LARGE","NORAD_CAT_ID":"45662","PERIOD":"95.592","CLASSIFICATION_TYPE":"U","SITE":"AFETR","LAUNCH_DATE":"2020-06-04","APOAPSIS":"548.151","EPOCH":"2023-02-05T13:27:13.686912","MEAN_MOTION_DOT":"0.00000449","TLE_LINE1":"1 45662U 20035F   23036.56057508  .00000449  00000-0  49066-4 0  9999","INCLINATION":"53.0528","MEAN_MOTION":"15.06399057","PERIAPSIS":"546.282","COUNTRY_CODE":"US","GP_ID":"224491560","OBJECT_NAME":"STARLINK-1445"},{"TIME_SYSTEM":"UTC","ECCENTRICITY":"0.00012510","ELEMENT_SET_NO":"999","REV_AT_EPOCH":"14826","EPHEMERIS_TYPE":"0","DECAY_DATE":null,"OBJECT_ID":"2020-035G","BSTAR":"0.00013790000000","MEAN_MOTION_DDOT":"0.0000000000000","MEAN_ANOMALY":"262.1413","RA_OF_ASC_NODE":"91.5608","REF_FRAME":"TEME","SEMIMAJOR_AXIS":"6925.354","OBJECT_TYPE":"PAYLOAD","ARG_OF_PERICENTER":"97.9718","FILE":"3773956","CENTER_NAME":"EARTH","TLE_LINE2":"2 45663  53.0547  91.5608 0001251  97.9718 262.1413 15.06398107148269","CLASSIFICATION_TYPE":"U","PERIOD":"95.592","NORAD_CAT_ID":"45663","RCS_SIZE":"LARGE","MEAN_ELEMENT_THEORY":"SGP4","OBJECT_NAME":"STARLINK-1446","GP_ID":"224530835","COUNTRY_CODE":"US","PERIAPSIS":"546.353","MEAN_MOTION":"15.06398107","INCLINATION":"53.0547","TLE_LINE1":"1 45663U 20035G   23036.43156938  .00001773  00000-0  13790-3 0  9998","MEAN_MOTION_DOT":"0.00001773","EPOCH":"2023-02-05T10:21:27.594432","APOAPSIS":"548.086","LAUNCH_DATE":"2020-06-04","SITE":"AFETR"},{"LAUNCH_DATE":"2020-06-04","SITE":"AFETR","MEAN_MOTION_DOT":"-0.00002374","TLE_LINE1":"1 45665U 20035J   23036.86280752 -.00002374  00000-0 -14051-3 0  9990","APOAPSIS":"548.189","EPOCH":"2023-02-05T20:42:26.569728","INCLINATION":"53.0536","PERIAPSIS":"546.206","MEAN_MOTION":"15.06405162","GP_ID":"224555691","OBJECT_NAME":"STARLINK-1448","COUNTRY_CODE":"US","RCS_SIZE":"LARGE","MEAN_ELEMENT_THEORY":"SGP4","PERIOD":"95.592","NORAD_CAT_ID":"45665","CLASSIFICATION_TYPE":"U","TLE_LINE2":"2 45665  53.0536  89.6393 0001432  90.8768 269.2385 15.06405162148734","CENTER_NAME":"EARTH","FILE":"3774172","ARG_OF_PERICENTER":"90.8768","RA_OF_ASC_NODE":"89.6393","REF_FRAME":"TEME","SEMIMAJOR_AXIS":"6925.333","OBJECT_TYPE":"PAYLOAD","MEAN_MOTION_DDOT":"0.0000000000000","BSTAR":"-0.00014051000000","MEAN_ANOMALY":"269.2385","REV_AT_EPOCH":"14873","OBJECT_ID":"2020-035J","DECAY_DATE":null,"EPHEMERIS_TYPE":"0","TIME_SYSTEM":"UTC","ELEMENT_SET_NO":"999","ECCENTRICITY":"0.00014320"},{"TLE_LINE2":"2 45666  53.0553  89.5926 0001328  81.6508 278.4631 15.06397476148733","FILE":"3774172","CENTER_NAME":"EARTH","ARG_OF_PERICENTER":"81.6508","SEMIMAJOR_AXIS":"6925.356","OBJECT_TYPE":"PAYLOAD","RA_OF_ASC_NODE":"89.5926","REF_FRAME":"TEME","MEAN_ANOMALY":"278.4631","BSTAR":"0.00004773400000","MEAN_MOTION_DDOT":"0.0000000000000","EPHEMERIS_TYPE":"0","DECAY_DATE":null,"OBJECT_ID":"2020-035K","REV_AT_EPOCH":"14873","ECCENTRICITY":"0.00013280","ELEMENT_SET_NO":"999","TIME_SYSTEM":"UTC","SITE":"AFETR","LAUNCH_DATE":"2020-06-04","EPOCH":"2023-02-05T20:47:46.315392","APOAPSIS":"548.141","TLE_LINE1":"1 45666U 20035K   23036.86650828  .00000430  00000-0  47734-4 0  9990","MEAN_MOTION_DOT":"0.00000430","PERIAPSIS":"546.302","MEAN_MOTION":"15.06397476","INCLINATION":"53.0553","COUNTRY_CODE":"US","OBJECT_NAME":"STARLINK-1449","GP_ID":"224554454","MEAN_ELEMENT_THEORY":"SGP4","RCS_SIZE":"LARGE","NORAD_CAT_ID":"45666","PERIOD":"95.592","CLASSIFICATION_TYPE":"U"},{"COUNTRY_CODE":"US","GP_ID":"224554206","OBJECT_NAME":"STARLINK-1450","INCLINATION":"53.0547","MEAN_MOTION":"15.06391669","PERIAPSIS":"546.233","APOAPSIS":"548.245","EPOCH":"2023-02-05T20:51:43.941312","MEAN_MOTION_DOT":"0.00003108","TLE_LINE1":"1 45667U 20035L   23036.86925858  .00003108  00000-0  22747-3 0  9990","SITE":"AFETR","LAUNCH_DATE":"2020-06-04","CLASSIFICATION_TYPE":"U","NORAD_CAT_ID":"45667","PERIOD":"95.593","MEAN_ELEMENT_THEORY":"SGP4","RCS_SIZE":"LARGE","ARG_OF_PERICENTER":"86.5722","CENTER_NAME":"EARTH","FILE":"3774172","TLE_LINE2":"2 45667  53.0547  89.6404 0001453  86.5722 273.5433 15.06391669148734","ELEMENT_SET_NO":"999","ECCENTRICITY":"0.00014530","TIME_SYSTEM":"UTC","DECAY_DATE":null,"OBJECT_ID":"2020-035L","EPHEMERIS_TYPE":"0","REV_AT_EPOCH":"14873","MEAN_ANOMALY":"273.5433","MEAN_MOTION_DDOT":"0.0000000000000","BSTAR":"0.00022747000000","SEMIMAJOR_AXIS":"6925.374","OBJECT_TYPE":"PAYLOAD","RA_OF_ASC_NODE":"89.6404","REF_FRAME":"TEME"},{"ARG_OF_PERICENTER":"94.0463","TLE_LINE2":"2 45668  53.0532  89.7558 0001204  94.0463 266.0664 15.06393407148746","CENTER_NAME":"EARTH","FILE":"3774172","EPHEMERIS_TYPE":"0","DECAY_DATE":null,"OBJECT_ID":"2020-035M","REV_AT_EPOCH":"14874","ECCENTRICITY":"0.00012040","ELEMENT_SET_NO":"999","TIME_SYSTEM":"UTC","SEMIMAJOR_AXIS":"6925.369","OBJECT_TYPE":"PAYLOAD","RA_OF_ASC_NODE":"89.7558","REF_FRAME":"TEME","MEAN_ANOMALY":"266.0664","BSTAR":"-0.00000491660000","MEAN_MOTION_DDOT":"0.0000000000000","PERIAPSIS":"546.400","MEAN_MOTION":"15.06393407","INCLINATION":"53.0532","COUNTRY_CODE":"US","OBJECT_NAME":"STARLINK-1451","GP_ID":"224555456","SITE":"AFETR","LAUNCH_DATE":"2020-06-04","EPOCH":"2023-02-05T20:03:57.181536","APOAPSIS":"548.068","TLE_LINE1":"1 45668U 20035M   23036.83607849 -.00000355  00000-0 -49166-5 0  9994","MEAN_MOTION_DOT":"-0.00000355","CLASSIFICATION_TYPE":"U","MEAN_ELEMENT_THEORY":"SGP4","RCS_SIZE":"LARGE","NORAD_CAT_ID":"45668","PERIOD":"95.593"},{"SITE":"AFETR","LAUNCH_DATE":"2020-06-04","EPOCH":"2023-02-05T10:05:32.062272","APOAPSIS":"548.259","TLE_LINE1":"1 45669U 20035N   23036.42050998 -.00000384  00000-0 -68522-5 0  9996","MEAN_MOTION_DOT":"-0.00000384","PERIAPSIS":"546.183","MEAN_MOTION":"15.06397604","INCLINATION":"53.0540","COUNTRY_CODE":"US","OBJECT_NAME":"STARLINK-1452","GP_ID":"224530926","MEAN_ELEMENT_THEORY":"SGP4","RCS_SIZE":"LARGE","NORAD_CAT_ID":"45669","PERIOD":"95.592","CLASSIFICATION_TYPE":"U","TLE_LINE2":"2 45669  53.0540  91.6209 0001499  92.2097 267.9064 15.06397604148253","FILE":"3773958","CENTER_NAME":"EARTH","ARG_OF_PERICENTER":"92.2097","SEMIMAJOR_AXIS":"6925.356","OBJECT_TYPE":"PAYLOAD","RA_OF_ASC_NODE":"91.6209","REF_FRAME":"TEME","MEAN_ANOMALY":"267.9064","BSTAR":"-0.00000685220000","MEAN_MOTION_DDOT":"0.0000000000000","EPHEMERIS_TYPE":"0","DECAY_DATE":null,"OBJECT_ID":"2020-035N","REV_AT_EPOCH":"14825","ECCENTRICITY":"0.00014990","ELEMENT_SET_NO":"999","TIME_SYSTEM":"UTC"},{"CLASSIFICATION_TYPE":"U","MEAN_ELEMENT_THEORY":"SGP4","RCS_SIZE":"LARGE","NORAD_CAT_ID":"45670","PERIOD":"95.592","PERIAPSIS":"546.254","MEAN_MOTION":"15.06395495","INCLINATION":"53.0513","COUNTRY_CODE":"US","OBJECT_NAME":"STARLINK-1453","GP_ID":"224490812","SITE":"AFETR","LAUNCH_DATE":"2020-06-04","EPOCH":"2023-02-05T13:04:40.326816","APOAPSIS":"548.200","TLE_LINE1":"1 45670U 20035P   23036.54491119  .00000051  00000-0  22342-4 0  9993","MEAN_MOTION_DOT":"0.00000051","EPHEMERIS_TYPE":"0","DECAY_DATE":null,"OBJECT_ID":"2020-035P","REV_AT_EPOCH":"14900","ECCENTRICITY":"0.00014050","ELEMENT_SET_NO":"999","TIME_SYSTEM":"UTC","SEMIMAJOR_AXIS":"6925.362","OBJECT_TYPE":"PAYLOAD","REF_FRAME":"TEME","RA_OF_ASC_NODE":"61.0631","MEAN_ANOMALY":"235.3531","BSTAR":"0.00002234200000","MEAN_MOTION_DDOT":"0.0000000000000","ARG_OF_PERICENTER":"124.7590","TLE_LINE2":"2 45670  53.0513  61.0631 0001405 124.7590 235.3531 15.06395495149009","CENTER_NAME":"EARTH","FILE":"3773728"},{"COUNTRY_CODE":"US","OBJECT_NAME":"STARLINK-1454","GP_ID":"224491561","MEAN_MOTION":"15.06392179","PERIAPSIS":"546.147","INCLINATION":"53.0549","EPOCH":"2023-02-05T10:10:50.777184","APOAPSIS":"548.328","TLE_LINE1":"1 45671U 20035Q   23036.42419881  .00000826  00000-0  74390-4 0  9997","MEAN_MOTION_DOT":"0.00000826","SITE":"AFETR","LAUNCH_DATE":"2020-06-04","CLASSIFICATION_TYPE":"U","NORAD_CAT_ID":"45671","PERIOD":"95.593","MEAN_ELEMENT_THEORY":"SGP4","RCS_SIZE":"LARGE","ARG_OF_PERICENTER":"87.6268","FILE":"3773728","CENTER_NAME":"EARTH","TLE_LINE2":"2 45671  53.0549  91.6045 0001575  87.6268 272.4901 15.06392179148664","ECCENTRICITY":"0.00015750","ELEMENT_SET_NO":"999","TIME_SYSTEM":"UTC","EPHEMERIS_TYPE":"0","DECAY_DATE":null,"OBJECT_ID":"2020-035Q","REV_AT_EPOCH":"14866","MEAN_ANOMALY":"272.4901","BSTAR":"0.00007439000000","MEAN_MOTION_DDOT":"0.0000000000000","OBJECT_TYPE":"PAYLOAD","SEMIMAJOR_AXIS":"6925.373","RA_OF_ASC_NODE":"91.6045","REF_FRAME":"TEME"}];
